[{"OBJECT_NAME":"ANSER FOLLOWER 2","OBJECT_ID":"2023-155C","EPOCH":"2026-03-05T19:43:56.461728","MEAN_MOTION":15.37516487,"ECCENTRICITY":6.896e-5,"INCLINATION":97.5578,"RA_OF_ASC_NODE":150.2317,"ARG_OF_PERICENTER":152.695,"MEAN_ANOMALY":207.4331,"EPHEMERIS_TYPE":0,"CLASSIFICATION_TYPE":"U","NORAD_CAT_ID":58018,"ELEMENT_SET_NO":999,"REV_AT_EPOCH":13302,"BSTAR":0.00060275793,"MEAN_MOTION_DOT":0.00022135,"MEAN_MOTION_DDOT":0},{"OBJECT_NAME":"ARIANE 44LP DEB","OBJECT_ID":"1988-109G","EPOCH":"2026-03-08T21:34:00.836256","MEAN_MOTION":3.15098645,"ECCENTRICITY":0.6576716,"INCLINATION":6.8958,"RA_OF_ASC_NODE":351.3106,"ARG_OF_PERICENTER":181.1678,"MEAN_ANOMALY":175.7402,"EPHEMERIS_TYPE":0,"CLASSIFICATION_TYPE":"U","NORAD_CAT_ID":25540,"ELEMENT_SET_NO":999,"REV_AT_EPOCH":27207,"BSTAR":0.0058027757,"MEAN_MOTION_DOT":6.918e-5,"MEAN_MOTION_DDOT":0}]
